{
    "week": 293,
    "satellites": [
        {
            "Name": "GSAT0208 (GALILEO 11)",
            "Line1": "1 41175U 15079B   24326.16650514  .00000044  00000+0  00000+0 0  9991",
            "Line2": "2 41175  55.4993 116.9980 0001404   7.5042 352.4755  1.70474306 55582",
            "SatelliteNumber": "41175",
            "Classification": "U",
            "LaunchYear": "15",
            "LaunchNumber": "079",
            "PieceOfLaunch": "B",
            "EpochYear": "24",
            "EpochDay": 326.16650514,
            "FirstDerivativeMeanMotion": 4.4e-07,
            "SecondDerivativeMeanMotion": "00000+0",
            "BSTAR": "00000+0",
            "SetNumber": "999",
            "Inclination": 55.4993,
            "RAAN": 116.998,
            "Eccentricity": 0.0001404,
            "ArgumentOfPerigee": 7.5042,
            "MeanAnomaly": 352.4755,
            "MeanMotion": 1.70474306,
            "RevolutionNumber": "5558"
        },
        {
            "Name": "GSAT0211 (GALILEO 14)",
            "Line1": "1 41549U 16030A   24325.11652024 -.00000017  00000+0  00000+0 0  9997",
            "Line2": "2 41549  55.2980 237.4873 0003754 356.5931   3.4513  1.70472911 52880",
            "SatelliteNumber": "41549",
            "Classification": "U",
            "LaunchYear": "16",
            "LaunchNumber": "030",
            "PieceOfLaunch": "A",
            "EpochYear": "24",
            "EpochDay": 325.11652024,
            "FirstDerivativeMeanMotion": -1.7e-07,
            "SecondDerivativeMeanMotion": "00000+0",
            "BSTAR": "00000+0",
            "SetNumber": "999",
            "Inclination": 55.298,
            "RAAN": 237.4873,
            "Eccentricity": 0.0003754,
            "ArgumentOfPerigee": 356.5931,
            "MeanAnomaly": 3.4513,
            "MeanMotion": 1.70472911,
            "RevolutionNumber": "5288"
        },
        {
            "Name": "GSAT0210 (GALILEO 13)",
            "Line1": "1 41550U 16030B   24324.78790395 -.00000015  00000+0  00000+0 0  9993",
            "Line2": "2 41550  55.2972 237.4944 0002087 245.9088 114.1164  1.70473489 52876",
            "SatelliteNumber": "41550",
            "Classification": "U",
            "LaunchYear": "16",
            "LaunchNumber": "030",
            "PieceOfLaunch": "B",
            "EpochYear": "24",
            "EpochDay": 324.78790395,
            "FirstDerivativeMeanMotion": -1.5e-07,
            "SecondDerivativeMeanMotion": "00000+0",
            "BSTAR": "00000+0",
            "SetNumber": "999",
            "Inclination": 55.2972,
            "RAAN": 237.4944,
            "Eccentricity": 0.0002087,
            "ArgumentOfPerigee": 245.9088,
            "MeanAnomaly": 114.1164,
            "MeanMotion": 1.70473489,
            "RevolutionNumber": "5287"
        },
        {
            "Name": "GSAT0207 (GALILEO 15)",
            "Line1": "1 41859U 16069A   24324.48041039  .00000036  00000+0  00000+0 0  9990",
            "Line2": "2 41859  55.1655 117.0102 0001703 315.3000  44.6588  1.70474328 49601",
            "SatelliteNumber": "41859",
            "Classification": "U",
            "LaunchYear": "16",
            "LaunchNumber": "069",
            "PieceOfLaunch": "A",
            "EpochYear": "24",
            "EpochDay": 324.48041039,
            "FirstDerivativeMeanMotion": 3.6e-07,
            "SecondDerivativeMeanMotion": "00000+0",
            "BSTAR": "00000+0",
            "SetNumber": "999",
            "Inclination": 55.1655,
            "RAAN": 117.0102,
            "Eccentricity": 0.0001703,
            "ArgumentOfPerigee": 315.3,
            "MeanAnomaly": 44.6588,
            "MeanMotion": 1.70474328,
            "RevolutionNumber": "4960"
        },
        {
            "Name": "GSAT0212 (GALILEO 16)",
            "Line1": "1 41860U 16069B   24326.09428647  .00000043  00000+0  00000+0 0  9993",
            "Line2": "2 41860  55.1658 116.9615 0001886  34.6629 325.3268  1.70474612 49883",
            "SatelliteNumber": "41860",
            "Classification": "U",
            "LaunchYear": "16",
            "LaunchNumber": "069",
            "PieceOfLaunch": "B",
            "EpochYear": "24",
            "EpochDay": 326.09428647,
            "FirstDerivativeMeanMotion": 4.3e-07,
            "SecondDerivativeMeanMotion": "00000+0",
            "BSTAR": "00000+0",
            "SetNumber": "999",
            "Inclination": 55.1658,
            "RAAN": 116.9615,
            "Eccentricity": 0.0001886,
            "ArgumentOfPerigee": 34.6629,
            "MeanAnomaly": 325.3268,
            "MeanMotion": 1.70474612,
            "RevolutionNumber": "4988"
        },
        {
            "Name": "GSAT0213 (GALILEO 17)",
            "Line1": "1 41861U 16069C   24324.70283503  .00000036  00000+0  00000+0 0  9992",
            "Line2": "2 41861  55.1652 117.0071 0001836 265.2014  94.7507  1.70474859 49720",
            "SatelliteNumber": "41861",
            "Classification": "U",
            "LaunchYear": "16",
            "LaunchNumber": "069",
            "PieceOfLaunch": "C",
            "EpochYear": "24",
            "EpochDay": 324.70283503,
            "FirstDerivativeMeanMotion": 3.6e-07,
            "SecondDerivativeMeanMotion": "00000+0",
            "BSTAR": "00000+0",
            "SetNumber": "999",
            "Inclination": 55.1652,
            "RAAN": 117.0071,
            "Eccentricity": 0.0001836,
            "ArgumentOfPerigee": 265.2014,
            "MeanAnomaly": 94.7507,
            "MeanMotion": 1.70474859,
            "RevolutionNumber": "4972"
        },
        {
            "Name": "GSAT0214 (GALILEO 18)",
            "Line1": "1 41862U 16069D   24326.60800724  .00000045  00000+0  00000+0 0  9994",
            "Line2": "2 41862  55.1653 116.9475 0000962 261.4639  98.5044  1.70474687 49882",
            "SatelliteNumber": "41862",
            "Classification": "U",
            "LaunchYear": "16",
            "LaunchNumber": "069",
            "PieceOfLaunch": "D",
            "EpochYear": "24",
            "EpochDay": 326.60800724,
            "FirstDerivativeMeanMotion": 4.5e-07,
            "SecondDerivativeMeanMotion": "00000+0",
            "BSTAR": "00000+0",
            "SetNumber": "999",
            "Inclination": 55.1653,
            "RAAN": 116.9475,
            "Eccentricity": 9.62e-05,
            "ArgumentOfPerigee": 261.4639,
            "MeanAnomaly": 98.5044,
            "MeanMotion": 1.70474687,
            "RevolutionNumber": "4988"
        },
        {
            "Name": "GSAT0215 (GALILEO 19)",
            "Line1": "1 43055U 17079A   24326.51122037 -.00000024  00000+0  00000+0 0  9994",
            "Line2": "2 43055  55.2742 237.2685 0001671 307.0812  52.9489  1.70473789 43227",
            "SatelliteNumber": "43055",
            "Classification": "U",
            "LaunchYear": "17",
            "LaunchNumber": "079",
            "PieceOfLaunch": "A",
            "EpochYear": "24",
            "EpochDay": 326.51122037,
            "FirstDerivativeMeanMotion": -2.4e-07,
            "SecondDerivativeMeanMotion": "00000+0",
            "BSTAR": "00000+0",
            "SetNumber": "999",
            "Inclination": 55.2742,
            "RAAN": 237.2685,
            "Eccentricity": 0.0001671,
            "ArgumentOfPerigee": 307.0812,
            "MeanAnomaly": 52.9489,
            "MeanMotion": 1.70473789,
            "RevolutionNumber": "4322"
        },
        {
            "Name": "GSAT0216 (GALILEO 20)",
            "Line1": "1 43056U 17079B   24327.38938038 -.00000026  00000+0  00000+0 0  9999",
            "Line2": "2 43056  55.2743 237.2443 0003179 301.8166  58.1960  1.70473913 43221",
            "SatelliteNumber": "43056",
            "Classification": "U",
            "LaunchYear": "17",
            "LaunchNumber": "079",
            "PieceOfLaunch": "B",
            "EpochYear": "24",
            "EpochDay": 327.38938038,
            "FirstDerivativeMeanMotion": -2.6e-07,
            "SecondDerivativeMeanMotion": "00000+0",
            "BSTAR": "00000+0",
            "SetNumber": "999",
            "Inclination": 55.2743,
            "RAAN": 237.2443,
            "Eccentricity": 0.0003179,
            "ArgumentOfPerigee": 301.8166,
            "MeanAnomaly": 58.196,
            "MeanMotion": 1.70473913,
            "RevolutionNumber": "4322"
        },
        {
            "Name": "GSAT0217 (GALILEO 21)",
            "Line1": "1 43057U 17079C   24325.85016895 -.00000021  00000+0  00000+0 0  9993",
            "Line2": "2 43057  55.2733 237.2851 0003056 322.7942  37.2312  1.70473765 43215",
            "SatelliteNumber": "43057",
            "Classification": "U",
            "LaunchYear": "17",
            "LaunchNumber": "079",
            "PieceOfLaunch": "C",
            "EpochYear": "24",
            "EpochDay": 325.85016895,
            "FirstDerivativeMeanMotion": -2.1e-07,
            "SecondDerivativeMeanMotion": "00000+0",
            "BSTAR": "00000+0",
            "SetNumber": "999",
            "Inclination": 55.2733,
            "RAAN": 237.2851,
            "Eccentricity": 0.0003056,
            "ArgumentOfPerigee": 322.7942,
            "MeanAnomaly": 37.2312,
            "MeanMotion": 1.70473765,
            "RevolutionNumber": "4321"
        }
    ]
}